CCSDS_OMM_VERS = 2.0
CREATION_DATE  = 
ORIGINATOR     = 

OBJECT_NAME    = SL-3 R/B
OBJECT_ID      = 1988-032B
CENTER_NAME    = EARTH
REF_FRAME      = TEME
TIME_SYSTEM    = UTC
MEAN_ELEMENT_THEORY = SGP/SGP4

EPOCH          = 2026-04-01T20:07:59.320992
MEAN_MOTION    = 15.20168502
ECCENTRICITY   = .0026778
INCLINATION    = 97.5216
RA_OF_ASC_NODE = 75.0164
ARG_OF_PERICENTER = 149.7597
MEAN_ANOMALY   = 210.5190

EPHEMERIS_TYPE = 0
CLASSIFICATION_TYPE = U
NORAD_CAT_ID   = 19046
ELEMENT_SET_NO = 999
REV_AT_EPOCH   = 5562
BSTAR          = .28686E-3
MEAN_MOTION_DOT = .6197E-4
MEAN_MOTION_DDOT = 0

CCSDS_OMM_VERS = 2.0
CREATION_DATE  = 
ORIGINATOR     = 

OBJECT_NAME    = SL-16 R/B
OBJECT_ID      = 1988-039B
CENTER_NAME    = EARTH
REF_FRAME      = TEME
TIME_SYSTEM    = UTC
MEAN_ELEMENT_THEORY = SGP/SGP4

EPOCH          = 2026-04-01T21:08:07.548288
MEAN_MOTION    = 14.19620344
ECCENTRICITY   = .0023776
INCLINATION    = 71.0173
RA_OF_ASC_NODE = 19.5097
ARG_OF_PERICENTER = 301.1861
MEAN_ANOMALY   = 58.6933

EPHEMERIS_TYPE = 0
CLASSIFICATION_TYPE = U
NORAD_CAT_ID   = 19120
ELEMENT_SET_NO = 999
REV_AT_EPOCH   = 96167
BSTAR          = .19712E-4
MEAN_MOTION_DOT = -.7E-7
MEAN_MOTION_DDOT = 0

CCSDS_OMM_VERS = 2.0
CREATION_DATE  = 
ORIGINATOR     = 

OBJECT_NAME    = COSMOS 1953
OBJECT_ID      = 1988-050A
CENTER_NAME    = EARTH
REF_FRAME      = TEME
TIME_SYSTEM    = UTC
MEAN_ELEMENT_THEORY = SGP/SGP4

EPOCH          = 2026-04-01T20:42:24.360480
MEAN_MOTION    = 15.28885196
ECCENTRICITY   = .0012076
INCLINATION    = 82.5068
RA_OF_ASC_NODE = 134.9343
ARG_OF_PERICENTER = 50.3830
MEAN_ANOMALY   = 309.8473

EPHEMERIS_TYPE = 0
CLASSIFICATION_TYPE = U
NORAD_CAT_ID   = 19210
ELEMENT_SET_NO = 999
REV_AT_EPOCH   = 4132
BSTAR          = .28169E-3
MEAN_MOTION_DOT = .7953E-4
MEAN_MOTION_DDOT = 0

CCSDS_OMM_VERS = 2.0
CREATION_DATE  = 
ORIGINATOR     = 

OBJECT_NAME    = SL-8 R/B
OBJECT_ID      = 1988-053B
CENTER_NAME    = EARTH
REF_FRAME      = TEME
TIME_SYSTEM    = UTC
MEAN_ELEMENT_THEORY = SGP/SGP4

EPOCH          = 2026-04-01T16:34:32.156544
MEAN_MOTION    = 14.38931850
ECCENTRICITY   = .0021421
INCLINATION    = 74.0464
RA_OF_ASC_NODE = 70.0644
ARG_OF_PERICENTER = 246.2865
MEAN_ANOMALY   = 286.4698

EPHEMERIS_TYPE = 0
CLASSIFICATION_TYPE = U
NORAD_CAT_ID   = 19257
ELEMENT_SET_NO = 999
REV_AT_EPOCH   = 97990
BSTAR          = .11267E-3
MEAN_MOTION_DOT = .322E-5
MEAN_MOTION_DDOT = 0

CCSDS_OMM_VERS = 2.0
CREATION_DATE  = 
ORIGINATOR     = 

OBJECT_NAME    = COSMOS 1975
OBJECT_ID      = 1988-093A
CENTER_NAME    = EARTH
REF_FRAME      = TEME
TIME_SYSTEM    = UTC
MEAN_ELEMENT_THEORY = SGP/SGP4

EPOCH          = 2026-04-01T10:41:34.247328
MEAN_MOTION    = 15.28388149
ECCENTRICITY   = .0013408
INCLINATION    = 82.5154
RA_OF_ASC_NODE = 94.8303
ARG_OF_PERICENTER = 91.5017
MEAN_ANOMALY   = 268.7758

EPHEMERIS_TYPE = 0
CLASSIFICATION_TYPE = U
NORAD_CAT_ID   = 19573
ELEMENT_SET_NO = 999
REV_AT_EPOCH   = 2288
BSTAR          = .24087E-3
MEAN_MOTION_DOT = .6706E-4
MEAN_MOTION_DDOT = 0

CCSDS_OMM_VERS = 2.0
CREATION_DATE  = 
ORIGINATOR     = 

OBJECT_NAME    = SL-14 R/B
OBJECT_ID      = 1988-093B
CENTER_NAME    = EARTH
REF_FRAME      = TEME
TIME_SYSTEM    = UTC
MEAN_ELEMENT_THEORY = SGP/SGP4

EPOCH          = 2026-04-01T13:59:07.041696
MEAN_MOTION    = 14.85684080
ECCENTRICITY   = .0019789
INCLINATION    = 82.5343
RA_OF_ASC_NODE = 20.5574
ARG_OF_PERICENTER = 326.2877
MEAN_ANOMALY   = 207.1143

EPHEMERIS_TYPE = 0
CLASSIFICATION_TYPE = U
NORAD_CAT_ID   = 19574
ELEMENT_SET_NO = 999
REV_AT_EPOCH   = 441
BSTAR          = .72051E-4
MEAN_MOTION_DOT = .651E-5
MEAN_MOTION_DDOT = 0

CCSDS_OMM_VERS = 2.0
CREATION_DATE  = 
ORIGINATOR     = 

OBJECT_NAME    = SL-16 R/B
OBJECT_ID      = 1988-102B
CENTER_NAME    = EARTH
REF_FRAME      = TEME
TIME_SYSTEM    = UTC
MEAN_ELEMENT_THEORY = SGP/SGP4

EPOCH          = 2026-04-01T17:16:45.180768
MEAN_MOTION    = 14.16153877
ECCENTRICITY   = .0015285
INCLINATION    = 70.9969
RA_OF_ASC_NODE = 103.0379
ARG_OF_PERICENTER = 327.7197
MEAN_ANOMALY   = 32.2989

EPHEMERIS_TYPE = 0
CLASSIFICATION_TYPE = U
NORAD_CAT_ID   = 19650
ELEMENT_SET_NO = 999
REV_AT_EPOCH   = 93015
BSTAR          = .83734E-4
MEAN_MOTION_DOT = .118E-5
MEAN_MOTION_DDOT = 0

CCSDS_OMM_VERS = 2.0
CREATION_DATE  = 
ORIGINATOR     = 

OBJECT_NAME    = INTERCOSMOS 24
OBJECT_ID      = 1989-080A
CENTER_NAME    = EARTH
REF_FRAME      = TEME
TIME_SYSTEM    = UTC
MEAN_ELEMENT_THEORY = SGP/SGP4

EPOCH          = 2026-04-01T16:17:54.711744
MEAN_MOTION    = 12.59586556
ECCENTRICITY   = .118694
INCLINATION    = 82.6014
RA_OF_ASC_NODE = 89.4288
ARG_OF_PERICENTER = 239.4130
MEAN_ANOMALY   = 108.4677

EPHEMERIS_TYPE = 0
CLASSIFICATION_TYPE = U
NORAD_CAT_ID   = 20261
ELEMENT_SET_NO = 999
REV_AT_EPOCH   = 66969
BSTAR          = .1482E-3
MEAN_MOTION_DOT = .503E-5
MEAN_MOTION_DDOT = 0

CCSDS_OMM_VERS = 2.0
CREATION_DATE  = 
ORIGINATOR     = 

OBJECT_NAME    = SL-14 R/B
OBJECT_ID      = 1989-080C
CENTER_NAME    = EARTH
REF_FRAME      = TEME
TIME_SYSTEM    = UTC
MEAN_ELEMENT_THEORY = SGP/SGP4

EPOCH          = 2026-04-01T06:44:32.027136
MEAN_MOTION    = 12.50515118
ECCENTRICITY   = .1230905
INCLINATION    = 82.5950
RA_OF_ASC_NODE = 158.6900
ARG_OF_PERICENTER = 133.1373
MEAN_ANOMALY   = 237.9537

EPHEMERIS_TYPE = 0
CLASSIFICATION_TYPE = U
NORAD_CAT_ID   = 20262
ELEMENT_SET_NO = 999
REV_AT_EPOCH   = 66297
BSTAR          = .11743E-3
MEAN_MOTION_DOT = .42E-5
MEAN_MOTION_DDOT = 0

CCSDS_OMM_VERS = 2.0
CREATION_DATE  = 
ORIGINATOR     = 

OBJECT_NAME    = DELTA 1 R/B
OBJECT_ID      = 1989-089B
CENTER_NAME    = EARTH
REF_FRAME      = TEME
TIME_SYSTEM    = UTC
MEAN_ELEMENT_THEORY = SGP/SGP4

EPOCH          = 2026-04-01T19:06:59.263200
MEAN_MOTION    = 14.50682375
ECCENTRICITY   = .0070301
INCLINATION    = 97.0687
RA_OF_ASC_NODE = 295.5566
ARG_OF_PERICENTER = 50.3855
MEAN_ANOMALY   = 310.3520

EPHEMERIS_TYPE = 0
CLASSIFICATION_TYPE = U
NORAD_CAT_ID   = 20323
ELEMENT_SET_NO = 999
REV_AT_EPOCH   = 89908
BSTAR          = .11066E-3
MEAN_MOTION_DOT = .414E-5
MEAN_MOTION_DDOT = 0

CCSDS_OMM_VERS = 2.0
CREATION_DATE  = 
ORIGINATOR     = 

OBJECT_NAME    = ARIANE 40 R/B
OBJECT_ID      = 1990-005H
CENTER_NAME    = EARTH
REF_FRAME      = TEME
TIME_SYSTEM    = UTC
MEAN_ELEMENT_THEORY = SGP/SGP4

EPOCH          = 2026-04-01T04:32:57.699744
MEAN_MOTION    = 14.39885236
ECCENTRICITY   = .0011135
INCLINATION    = 98.3037
RA_OF_ASC_NODE = 151.1754
ARG_OF_PERICENTER = 133.2837
MEAN_ANOMALY   = 226.9282

EPHEMERIS_TYPE = 0
CLASSIFICATION_TYPE = U
NORAD_CAT_ID   = 20443
ELEMENT_SET_NO = 999
REV_AT_EPOCH   = 89604
BSTAR          = .1078E-3
MEAN_MOTION_DOT = .297E-5
MEAN_MOTION_DDOT = 0

CCSDS_OMM_VERS = 2.0
CREATION_DATE  = 
ORIGINATOR     = 

OBJECT_NAME    = DELTA 2 R/B(1)
OBJECT_ID      = 1990-008B
CENTER_NAME    = EARTH
REF_FRAME      = TEME
TIME_SYSTEM    = UTC
MEAN_ELEMENT_THEORY = SGP/SGP4

EPOCH          = 2026-04-01T20:03:07.963776
MEAN_MOTION    = 15.59135232
ECCENTRICITY   = .0076793
INCLINATION    = 35.6044
RA_OF_ASC_NODE = 22.6054
ARG_OF_PERICENTER = 116.2428
MEAN_ANOMALY   = 244.6226

EPHEMERIS_TYPE = 0
CLASSIFICATION_TYPE = U
NORAD_CAT_ID   = 20453
ELEMENT_SET_NO = 999
REV_AT_EPOCH   = 92974
BSTAR          = .78201E-3
MEAN_MOTION_DOT = .73519E-3
MEAN_MOTION_DDOT = 0

