SL-3 R/B                
1 19046U 88032B   26091.83888103  .00006197  00000+0  28686-3 0  9993
2 19046  97.5216  75.0164 0026778 149.7597 210.5190 15.20168502 55623
SL-16 R/B               
1 19120U 88039B   26091.88064292 -.00000007  00000+0  19712-4 0  9999
2 19120  71.0173  19.5097 0023776 301.1861  58.6933 14.19620344961677
COSMOS 1953             
1 19210U 88050A   26091.86278195  .00007953  00000+0  28169-3 0  9990
2 19210  82.5068 134.9343 0012076  50.3830 309.8473 15.28885196 41323
SL-8 R/B                
1 19257U 88053B   26091.69064996  .00000322  00000+0  11267-3 0  9991
2 19257  74.0464  70.0644 0021421 246.2865 286.4698 14.38931850979904
COSMOS 1975             
1 19573U 88093A   26091.44553527  .00006706  00000+0  24087-3 0  9998
2 19573  82.5154  94.8303 0013408  91.5017 268.7758 15.28388149 22880
SL-14 R/B               
1 19574U 88093B   26091.58272039  .00000651  00000+0  72051-4 0  9998
2 19574  82.5343  20.5574 0019789 326.2877 207.1143 14.85684080  4416
SL-16 R/B               
1 19650U 88102B   26091.71996737  .00000118  00000+0  83734-4 0  9995
2 19650  70.9969 103.0379 0015285 327.7197  32.2989 14.16153877930157
INTERCOSMOS 24          
1 20261U 89080A   26091.67910546  .00000503  00000+0  14820-3 0  9997
2 20261  82.6014  89.4288 1186940 239.4130 108.4677 12.59586556669695
SL-14 R/B               
1 20262U 89080C   26091.28092624  .00000420  00000+0  11743-3 0  9992
2 20262  82.5950 158.6900 1230905 133.1373 237.9537 12.50515118662978
DELTA 1 R/B             
1 20323U 89089B   26091.79651925  .00000414  00000+0  11066-3 0  9991
2 20323  97.0687 295.5566 0070301  50.3855 310.3520 14.50682375899083
ARIANE 40 R/B           
1 20443U 90005H   26091.18955671  .00000297  00000+0  10780-3 0  9993
2 20443  98.3037 151.1754 0011135 133.2837 226.9282 14.39885236896044
DELTA 2 R/B(1)          
1 20453U 90008B   26091.83550884  .00073519  00000+0  78201-3 0  9995
2 20453  35.6044  22.6054 0076793 116.2428 244.6226 15.59135232929746
